CCSDS_OMM_VERS = 2.0
CREATION_DATE  = 
ORIGINATOR     = 

OBJECT_NAME    = PROGRESS-MS 32
OBJECT_ID      = 2025-204A
CENTER_NAME    = EARTH
REF_FRAME      = TEME
TIME_SYSTEM    = UTC
MEAN_ELEMENT_THEORY = SGP/SGP4

EPOCH          = 2025-12-08T13:01:02.621280
MEAN_MOTION    = 15.49420853
ECCENTRICITY   = .00033936
INCLINATION    = 51.6307
RA_OF_ASC_NODE = 163.2617
ARG_OF_PERICENTER = 220.7658
MEAN_ANOMALY   = 139.3077

EPHEMERIS_TYPE = 0
CLASSIFICATION_TYPE = U
NORAD_CAT_ID   = 65586
ELEMENT_SET_NO = 999
REV_AT_EPOCH   = 27
BSTAR          = .23027995E-3
MEAN_MOTION_DOT = .12445E-3
MEAN_MOTION_DDOT = 0

CCSDS_OMM_VERS = 2.0
CREATION_DATE  = 
ORIGINATOR     = 

OBJECT_NAME    = CYGNUS NG-23
OBJECT_ID      = 2025-208A
CENTER_NAME    = EARTH
REF_FRAME      = TEME
TIME_SYSTEM    = UTC
MEAN_ELEMENT_THEORY = SGP/SGP4

EPOCH          = 2025-12-08T13:01:02.621280
MEAN_MOTION    = 15.49420853
ECCENTRICITY   = .00033936
INCLINATION    = 51.6307
RA_OF_ASC_NODE = 163.2617
ARG_OF_PERICENTER = 220.7658
MEAN_ANOMALY   = 139.3077

EPHEMERIS_TYPE = 0
CLASSIFICATION_TYPE = U
NORAD_CAT_ID   = 65616
ELEMENT_SET_NO = 999
REV_AT_EPOCH   = 22
BSTAR          = .23027995E-3
MEAN_MOTION_DOT = .12445E-3
MEAN_MOTION_DDOT = 0

CCSDS_OMM_VERS = 2.0
CREATION_DATE  = 
ORIGINATOR     = 

OBJECT_NAME    = DRAGONFLY
OBJECT_ID      = 1998-067XH
CENTER_NAME    = EARTH
REF_FRAME      = TEME
TIME_SYSTEM    = UTC
MEAN_ELEMENT_THEORY = SGP/SGP4

EPOCH          = 2025-12-08T17:32:47.525568
MEAN_MOTION    = 15.70229086
ECCENTRICITY   = .0006525
INCLINATION    = 51.6249
RA_OF_ASC_NODE = 156.2650
ARG_OF_PERICENTER = 251.4950
MEAN_ANOMALY   = 108.5339

EPHEMERIS_TYPE = 0
CLASSIFICATION_TYPE = U
NORAD_CAT_ID   = 65729
ELEMENT_SET_NO = 999
REV_AT_EPOCH   = 1253
BSTAR          = .13272E-2
MEAN_MOTION_DOT = .167478E-2
MEAN_MOTION_DDOT = 0

CCSDS_OMM_VERS = 2.0
CREATION_DATE  = 
ORIGINATOR     = 

OBJECT_NAME    = 1998-067XK
OBJECT_ID      = 1998-067XK
CENTER_NAME    = EARTH
REF_FRAME      = TEME
TIME_SYSTEM    = UTC
MEAN_ELEMENT_THEORY = SGP/SGP4

EPOCH          = 2025-12-08T12:29:14.710560
MEAN_MOTION    = 15.64682619
ECCENTRICITY   = .00053917
INCLINATION    = 51.6277
RA_OF_ASC_NODE = 158.6227
ARG_OF_PERICENTER = 219.7303
MEAN_ANOMALY   = 140.3298

EPHEMERIS_TYPE = 0
CLASSIFICATION_TYPE = U
NORAD_CAT_ID   = 65731
ELEMENT_SET_NO = 999
REV_AT_EPOCH   = 1248
BSTAR          = .99222834E-3
MEAN_MOTION_DOT = .98864E-3
MEAN_MOTION_DDOT = 0

CCSDS_OMM_VERS = 2.0
CREATION_DATE  = 
ORIGINATOR     = 

OBJECT_NAME    = RSP-03
OBJECT_ID      = 1998-067XL
CENTER_NAME    = EARTH
REF_FRAME      = TEME
TIME_SYSTEM    = UTC
MEAN_ELEMENT_THEORY = SGP/SGP4

EPOCH          = 2025-12-08T18:54:04.823712
MEAN_MOTION    = 15.67324417
ECCENTRICITY   = .0006171
INCLINATION    = 51.6260
RA_OF_ASC_NODE = 156.6485
ARG_OF_PERICENTER = 224.9015
MEAN_ANOMALY   = 135.1483

EPHEMERIS_TYPE = 0
CLASSIFICATION_TYPE = U
NORAD_CAT_ID   = 65732
ELEMENT_SET_NO = 999
REV_AT_EPOCH   = 1254
BSTAR          = .12545E-2
MEAN_MOTION_DOT = .139916E-2
MEAN_MOTION_DDOT = 0

CCSDS_OMM_VERS = 2.0
CREATION_DATE  = 
ORIGINATOR     = 

OBJECT_NAME    = GHS-01
OBJECT_ID      = 1998-067XM
CENTER_NAME    = EARTH
REF_FRAME      = TEME
TIME_SYSTEM    = UTC
MEAN_ELEMENT_THEORY = SGP/SGP4

EPOCH          = 2025-12-08T18:04:32.914272
MEAN_MOTION    = 15.72738443
ECCENTRICITY   = .000691
INCLINATION    = 51.6282
RA_OF_ASC_NODE = 155.6685
ARG_OF_PERICENTER = 251.9559
MEAN_ANOMALY   = 108.0687

EPHEMERIS_TYPE = 0
CLASSIFICATION_TYPE = U
NORAD_CAT_ID   = 65733
ELEMENT_SET_NO = 999
REV_AT_EPOCH   = 1255
BSTAR          = .15078E-2
MEAN_MOTION_DOT = .212788E-2
MEAN_MOTION_DDOT = 0

CCSDS_OMM_VERS = 2.0
CREATION_DATE  = 
ORIGINATOR     = 

OBJECT_NAME    = YOTSUBA-KULOVER
OBJECT_ID      = 1998-067XN
CENTER_NAME    = EARTH
REF_FRAME      = TEME
TIME_SYSTEM    = UTC
MEAN_ELEMENT_THEORY = SGP/SGP4

EPOCH          = 2025-12-08T13:06:38.018304
MEAN_MOTION    = 15.58705702
ECCENTRICITY   = .00016718
INCLINATION    = 51.6278
RA_OF_ASC_NODE = 161.0428
ARG_OF_PERICENTER = 208.1564
MEAN_ANOMALY   = 151.9338

EPHEMERIS_TYPE = 0
CLASSIFICATION_TYPE = U
NORAD_CAT_ID   = 65941
ELEMENT_SET_NO = 999
REV_AT_EPOCH   = 920
BSTAR          = .90838679E-3
MEAN_MOTION_DOT = .7141E-3
MEAN_MOTION_DDOT = 0

CCSDS_OMM_VERS = 2.0
CREATION_DATE  = 
ORIGINATOR     = 

OBJECT_NAME    = BOTAN
OBJECT_ID      = 1998-067XP
CENTER_NAME    = EARTH
REF_FRAME      = TEME
TIME_SYSTEM    = UTC
MEAN_ELEMENT_THEORY = SGP/SGP4

EPOCH          = 2025-12-08T11:54:58.851072
MEAN_MOTION    = 15.61718865
ECCENTRICITY   = .00036467
INCLINATION    = 51.6286
RA_OF_ASC_NODE = 160.7119
ARG_OF_PERICENTER = 203.3745
MEAN_ANOMALY   = 156.7083

EPHEMERIS_TYPE = 0
CLASSIFICATION_TYPE = U
NORAD_CAT_ID   = 65942
ELEMENT_SET_NO = 999
REV_AT_EPOCH   = 920
BSTAR          = .12042708E-2
MEAN_MOTION_DOT = .106961E-2
MEAN_MOTION_DDOT = 0

CCSDS_OMM_VERS = 2.0
CREATION_DATE  = 
ORIGINATOR     = 

OBJECT_NAME    = E-KAGAKU-1
OBJECT_ID      = 1998-067XQ
CENTER_NAME    = EARTH
REF_FRAME      = TEME
TIME_SYSTEM    = UTC
MEAN_ELEMENT_THEORY = SGP/SGP4

EPOCH          = 2025-12-07T18:38:39.521184
MEAN_MOTION    = 15.58562644
ECCENTRICITY   = .00029586
INCLINATION    = 51.6295
RA_OF_ASC_NODE = 164.9078
ARG_OF_PERICENTER = 173.7443
MEAN_ANOMALY   = 186.3587

EPHEMERIS_TYPE = 0
CLASSIFICATION_TYPE = U
NORAD_CAT_ID   = 65943
ELEMENT_SET_NO = 999
REV_AT_EPOCH   = 908
BSTAR          = .11280115E-2
MEAN_MOTION_DOT = .88516E-3
MEAN_MOTION_DDOT = 0

CCSDS_OMM_VERS = 2.0
CREATION_DATE  = 
ORIGINATOR     = 

OBJECT_NAME    = HRC MONOBLOCK CAMERA
OBJECT_ID      = 1998-067XR
CENTER_NAME    = EARTH
REF_FRAME      = TEME
TIME_SYSTEM    = UTC
MEAN_ELEMENT_THEORY = SGP/SGP4

EPOCH          = 2025-12-08T19:01:14.871936
MEAN_MOTION    = 15.53732903
ECCENTRICITY   = .0003872
INCLINATION    = 51.6286
RA_OF_ASC_NODE = 161.1826
ARG_OF_PERICENTER = 167.7152
MEAN_ANOMALY   = 192.3934

EPHEMERIS_TYPE = 0
CLASSIFICATION_TYPE = U
NORAD_CAT_ID   = 66052
ELEMENT_SET_NO = 999
REV_AT_EPOCH   = 822
BSTAR          = .66164E-3
MEAN_MOTION_DOT = .42937E-3
MEAN_MOTION_DDOT = 0

CCSDS_OMM_VERS = 2.0
CREATION_DATE  = 
ORIGINATOR     = 

OBJECT_NAME    = HTV-X1
OBJECT_ID      = 2025-241A
CENTER_NAME    = EARTH
REF_FRAME      = TEME
TIME_SYSTEM    = UTC
MEAN_ELEMENT_THEORY = SGP/SGP4

EPOCH          = 2025-12-08T13:01:02.621280
MEAN_MOTION    = 15.49420853
ECCENTRICITY   = .00033936
INCLINATION    = 51.6307
RA_OF_ASC_NODE = 163.2617
ARG_OF_PERICENTER = 220.7658
MEAN_ANOMALY   = 139.3077

EPHEMERIS_TYPE = 0
CLASSIFICATION_TYPE = U
NORAD_CAT_ID   = 66174
ELEMENT_SET_NO = 999
REV_AT_EPOCH   = 51
BSTAR          = .23027995E-3
MEAN_MOTION_DOT = .12445E-3
MEAN_MOTION_DDOT = 0

CCSDS_OMM_VERS = 2.0
CREATION_DATE  = 
ORIGINATOR     = 

OBJECT_NAME    = SZ-21 MODULE
OBJECT_ID      = 2025-246C
CENTER_NAME    = EARTH
REF_FRAME      = TEME
TIME_SYSTEM    = UTC
MEAN_ELEMENT_THEORY = SGP/SGP4

EPOCH          = 2025-12-08T12:17:19.006656
MEAN_MOTION    = 15.62178331
ECCENTRICITY   = .00062383
INCLINATION    = 41.4773
RA_OF_ASC_NODE = 41.8306
ARG_OF_PERICENTER = 236.9164
MEAN_ANOMALY   = 123.1077

EPHEMERIS_TYPE = 0
CLASSIFICATION_TYPE = U
NORAD_CAT_ID   = 66515
ELEMENT_SET_NO = 999
REV_AT_EPOCH   = 378
BSTAR          = .33876447E-3
MEAN_MOTION_DOT = .30446E-3
MEAN_MOTION_DDOT = 0

